<?xml version="1.0" encoding="UTF-8"?>
<ndm xmlns:xsi="http://www.w3.org/2001/XMLSchema-instance" xsi:noNamespaceSchemaLocation="https://sanaregistry.org/r/ndmxml_unqualified/ndmxml-2.0.0-master-2.0.xsd">
<omm id="CCSDS_OMM_VERS" version="2.0">
<header><CREATION_DATE/><ORIGINATOR/></header><body><segment><metadata><OBJECT_NAME>KUIPER-00069</OBJECT_NAME><OBJECT_ID>2025-151A</OBJECT_ID><CENTER_NAME>EARTH</CENTER_NAME><REF_FRAME>TEME</REF_FRAME><TIME_SYSTEM>UTC</TIME_SYSTEM><MEAN_ELEMENT_THEORY>SGP4</MEAN_ELEMENT_THEORY></metadata><data><meanElements><EPOCH>2025-12-26T23:37:38.999424</EPOCH><MEAN_MOTION>14.79784336</MEAN_MOTION><ECCENTRICITY>.0004823</ECCENTRICITY><INCLINATION>51.9013</INCLINATION><RA_OF_ASC_NODE>242.1164</RA_OF_ASC_NODE><ARG_OF_PERICENTER>49.0681</ARG_OF_PERICENTER><MEAN_ANOMALY>311.0698</MEAN_ANOMALY></meanElements><tleParameters><EPHEMERIS_TYPE>0</EPHEMERIS_TYPE><CLASSIFICATION_TYPE>U</CLASSIFICATION_TYPE><NORAD_CAT_ID>64816</NORAD_CAT_ID><ELEMENT_SET_NO>999</ELEMENT_SET_NO><REV_AT_EPOCH>2599</REV_AT_EPOCH><BSTAR>.18877879E-2</BSTAR><MEAN_MOTION_DOT>.14151E-3</MEAN_MOTION_DOT><MEAN_MOTION_DDOT>0</MEAN_MOTION_DDOT></tleParameters></data></segment></body></omm>
<omm id="CCSDS_OMM_VERS" version="2.0">
<header><CREATION_DATE/><ORIGINATOR/></header><body><segment><metadata><OBJECT_NAME>KUIPER-00070</OBJECT_NAME><OBJECT_ID>2025-151B</OBJECT_ID><CENTER_NAME>EARTH</CENTER_NAME><REF_FRAME>TEME</REF_FRAME><TIME_SYSTEM>UTC</TIME_SYSTEM><MEAN_ELEMENT_THEORY>SGP4</MEAN_ELEMENT_THEORY></metadata><data><meanElements><EPOCH>2025-12-26T10:49:18.844320</EPOCH><MEAN_MOTION>14.79937670</MEAN_MOTION><ECCENTRICITY>.0010879</ECCENTRICITY><INCLINATION>51.9000</INCLINATION><RA_OF_ASC_NODE>269.4258</RA_OF_ASC_NODE><ARG_OF_PERICENTER>15.9776</ARG_OF_PERICENTER><MEAN_ANOMALY>344.1527</MEAN_ANOMALY></meanElements><tleParameters><EPHEMERIS_TYPE>0</EPHEMERIS_TYPE><CLASSIFICATION_TYPE>U</CLASSIFICATION_TYPE><NORAD_CAT_ID>64817</NORAD_CAT_ID><ELEMENT_SET_NO>999</ELEMENT_SET_NO><REV_AT_EPOCH>2557</REV_AT_EPOCH><BSTAR>.92257E-4</BSTAR><MEAN_MOTION_DOT>.48E-5</MEAN_MOTION_DOT><MEAN_MOTION_DDOT>0</MEAN_MOTION_DDOT></tleParameters></data></segment></body></omm>
<omm id="CCSDS_OMM_VERS" version="2.0">
<header><CREATION_DATE/><ORIGINATOR/></header><body><segment><metadata><OBJECT_NAME>KUIPER-00071</OBJECT_NAME><OBJECT_ID>2025-151C</OBJECT_ID><CENTER_NAME>EARTH</CENTER_NAME><REF_FRAME>TEME</REF_FRAME><TIME_SYSTEM>UTC</TIME_SYSTEM><MEAN_ELEMENT_THEORY>SGP4</MEAN_ELEMENT_THEORY></metadata><data><meanElements><EPOCH>2025-12-26T10:53:06.590400</EPOCH><MEAN_MOTION>14.79929260</MEAN_MOTION><ECCENTRICITY>.000725</ECCENTRICITY><INCLINATION>51.9001</INCLINATION><RA_OF_ASC_NODE>266.9283</RA_OF_ASC_NODE><ARG_OF_PERICENTER>354.4083</ARG_OF_PERICENTER><MEAN_ANOMALY>5.6797</MEAN_ANOMALY></meanElements><tleParameters><EPHEMERIS_TYPE>0</EPHEMERIS_TYPE><CLASSIFICATION_TYPE>U</CLASSIFICATION_TYPE><NORAD_CAT_ID>64818</NORAD_CAT_ID><ELEMENT_SET_NO>999</ELEMENT_SET_NO><REV_AT_EPOCH>2442</REV_AT_EPOCH><BSTAR>-.44876E-3</BSTAR><MEAN_MOTION_DOT>-.3643E-4</MEAN_MOTION_DOT><MEAN_MOTION_DDOT>0</MEAN_MOTION_DDOT></tleParameters></data></segment></body></omm>
<omm id="CCSDS_OMM_VERS" version="2.0">
<header><CREATION_DATE/><ORIGINATOR/></header><body><segment><metadata><OBJECT_NAME>KUIPER-00072</OBJECT_NAME><OBJECT_ID>2025-151D</OBJECT_ID><CENTER_NAME>EARTH</CENTER_NAME><REF_FRAME>TEME</REF_FRAME><TIME_SYSTEM>UTC</TIME_SYSTEM><MEAN_ELEMENT_THEORY>SGP4</MEAN_ELEMENT_THEORY></metadata><data><meanElements><EPOCH>2025-12-26T23:21:22.237920</EPOCH><MEAN_MOTION>14.76766757</MEAN_MOTION><ECCENTRICITY>.00025349</ECCENTRICITY><INCLINATION>51.8983</INCLINATION><RA_OF_ASC_NODE>244.5474</RA_OF_ASC_NODE><ARG_OF_PERICENTER>10.1308</ARG_OF_PERICENTER><MEAN_ANOMALY>349.9704</MEAN_ANOMALY></meanElements><tleParameters><EPHEMERIS_TYPE>0</EPHEMERIS_TYPE><CLASSIFICATION_TYPE>U</CLASSIFICATION_TYPE><NORAD_CAT_ID>64819</NORAD_CAT_ID><ELEMENT_SET_NO>999</ELEMENT_SET_NO><REV_AT_EPOCH>2478</REV_AT_EPOCH><BSTAR>.46826388E-3</BSTAR><MEAN_MOTION_DOT>.3098E-4</MEAN_MOTION_DOT><MEAN_MOTION_DDOT>0</MEAN_MOTION_DDOT></tleParameters></data></segment></body></omm>
<omm id="CCSDS_OMM_VERS" version="2.0">
<header><CREATION_DATE/><ORIGINATOR/></header><body><segment><metadata><OBJECT_NAME>KUIPER-00073</OBJECT_NAME><OBJECT_ID>2025-151E</OBJECT_ID><CENTER_NAME>EARTH</CENTER_NAME><REF_FRAME>TEME</REF_FRAME><TIME_SYSTEM>UTC</TIME_SYSTEM><MEAN_ELEMENT_THEORY>SGP4</MEAN_ELEMENT_THEORY></metadata><data><meanElements><EPOCH>2025-12-26T23:02:34.374048</EPOCH><MEAN_MOTION>14.79930368</MEAN_MOTION><ECCENTRICITY>.00134602</ECCENTRICITY><INCLINATION>51.8995</INCLINATION><RA_OF_ASC_NODE>264.6840</RA_OF_ASC_NODE><ARG_OF_PERICENTER>18.4849</ARG_OF_PERICENTER><MEAN_ANOMALY>341.6600</MEAN_ANOMALY></meanElements><tleParameters><EPHEMERIS_TYPE>0</EPHEMERIS_TYPE><CLASSIFICATION_TYPE>U</CLASSIFICATION_TYPE><NORAD_CAT_ID>64820</NORAD_CAT_ID><ELEMENT_SET_NO>999</ELEMENT_SET_NO><REV_AT_EPOCH>2568</REV_AT_EPOCH><BSTAR>.54649931E-3</BSTAR><MEAN_MOTION_DOT>.395E-4</MEAN_MOTION_DOT><MEAN_MOTION_DDOT>0</MEAN_MOTION_DDOT></tleParameters></data></segment></body></omm>
<omm id="CCSDS_OMM_VERS" version="2.0">
<header><CREATION_DATE/><ORIGINATOR/></header><body><segment><metadata><OBJECT_NAME>KUIPER-00074</OBJECT_NAME><OBJECT_ID>2025-151F</OBJECT_ID><CENTER_NAME>EARTH</CENTER_NAME><REF_FRAME>TEME</REF_FRAME><TIME_SYSTEM>UTC</TIME_SYSTEM><MEAN_ELEMENT_THEORY>SGP4</MEAN_ELEMENT_THEORY></metadata><data><meanElements><EPOCH>2025-12-26T23:22:01.911936</EPOCH><MEAN_MOTION>14.79944668</MEAN_MOTION><ECCENTRICITY>.00138634</ECCENTRICITY><INCLINATION>51.9018</INCLINATION><RA_OF_ASC_NODE>252.1418</RA_OF_ASC_NODE><ARG_OF_PERICENTER>33.7480</ARG_OF_PERICENTER><MEAN_ANOMALY>326.4362</MEAN_ANOMALY></meanElements><tleParameters><EPHEMERIS_TYPE>0</EPHEMERIS_TYPE><CLASSIFICATION_TYPE>U</CLASSIFICATION_TYPE><NORAD_CAT_ID>64821</NORAD_CAT_ID><ELEMENT_SET_NO>999</ELEMENT_SET_NO><REV_AT_EPOCH>2467</REV_AT_EPOCH><BSTAR>.70902846E-3</BSTAR><MEAN_MOTION_DOT>.5195E-4</MEAN_MOTION_DOT><MEAN_MOTION_DDOT>0</MEAN_MOTION_DDOT></tleParameters></data></segment></body></omm>
<omm id="CCSDS_OMM_VERS" version="2.0">
<header><CREATION_DATE/><ORIGINATOR/></header><body><segment><metadata><OBJECT_NAME>KUIPER-00075</OBJECT_NAME><OBJECT_ID>2025-151G</OBJECT_ID><CENTER_NAME>EARTH</CENTER_NAME><REF_FRAME>TEME</REF_FRAME><TIME_SYSTEM>UTC</TIME_SYSTEM><MEAN_ELEMENT_THEORY>SGP4</MEAN_ELEMENT_THEORY></metadata><data><meanElements><EPOCH>2025-12-26T20:35:08.325600</EPOCH><MEAN_MOTION>15.39988892</MEAN_MOTION><ECCENTRICITY>.00029189</ECCENTRICITY><INCLINATION>51.8738</INCLINATION><RA_OF_ASC_NODE>215.6198</RA_OF_ASC_NODE><ARG_OF_PERICENTER>45.3100</ARG_OF_PERICENTER><MEAN_ANOMALY>314.8126</MEAN_ANOMALY></meanElements><tleParameters><EPHEMERIS_TYPE>0</EPHEMERIS_TYPE><CLASSIFICATION_TYPE>U</CLASSIFICATION_TYPE><NORAD_CAT_ID>64822</NORAD_CAT_ID><ELEMENT_SET_NO>999</ELEMENT_SET_NO><REV_AT_EPOCH>2517</REV_AT_EPOCH><BSTAR>.1006622E-2</BSTAR><MEAN_MOTION_DOT>.40614E-3</MEAN_MOTION_DOT><MEAN_MOTION_DDOT>0</MEAN_MOTION_DDOT></tleParameters></data></segment></body></omm>
<omm id="CCSDS_OMM_VERS" version="2.0">
<header><CREATION_DATE/><ORIGINATOR/></header><body><segment><metadata><OBJECT_NAME>KUIPER-00076</OBJECT_NAME><OBJECT_ID>2025-151H</OBJECT_ID><CENTER_NAME>EARTH</CENTER_NAME><REF_FRAME>TEME</REF_FRAME><TIME_SYSTEM>UTC</TIME_SYSTEM><MEAN_ELEMENT_THEORY>SGP4</MEAN_ELEMENT_THEORY></metadata><data><meanElements><EPOCH>2025-12-26T23:18:04.441536</EPOCH><MEAN_MOTION>14.79949157</MEAN_MOTION><ECCENTRICITY>.00055994</ECCENTRICITY><INCLINATION>51.9018</INCLINATION><RA_OF_ASC_NODE>254.6470</RA_OF_ASC_NODE><ARG_OF_PERICENTER>34.7966</ARG_OF_PERICENTER><MEAN_ANOMALY>325.3362</MEAN_ANOMALY></meanElements><tleParameters><EPHEMERIS_TYPE>0</EPHEMERIS_TYPE><CLASSIFICATION_TYPE>U</CLASSIFICATION_TYPE><NORAD_CAT_ID>64823</NORAD_CAT_ID><ELEMENT_SET_NO>999</ELEMENT_SET_NO><REV_AT_EPOCH>2464</REV_AT_EPOCH><BSTAR>.73835638E-3</BSTAR><MEAN_MOTION_DOT>.5414E-4</MEAN_MOTION_DOT><MEAN_MOTION_DDOT>0</MEAN_MOTION_DDOT></tleParameters></data></segment></body></omm>
<omm id="CCSDS_OMM_VERS" version="2.0">
<header><CREATION_DATE/><ORIGINATOR/></header><body><segment><metadata><OBJECT_NAME>KUIPER-00077</OBJECT_NAME><OBJECT_ID>2025-151J</OBJECT_ID><CENTER_NAME>EARTH</CENTER_NAME><REF_FRAME>TEME</REF_FRAME><TIME_SYSTEM>UTC</TIME_SYSTEM><MEAN_ELEMENT_THEORY>SGP4</MEAN_ELEMENT_THEORY></metadata><data><meanElements><EPOCH>2025-12-26T23:10:17.510880</EPOCH><MEAN_MOTION>14.79946307</MEAN_MOTION><ECCENTRICITY>.0006021</ECCENTRICITY><INCLINATION>51.9017</INCLINATION><RA_OF_ASC_NODE>259.6777</RA_OF_ASC_NODE><ARG_OF_PERICENTER>357.8989</ARG_OF_PERICENTER><MEAN_ANOMALY>2.1947</MEAN_ANOMALY></meanElements><tleParameters><EPHEMERIS_TYPE>0</EPHEMERIS_TYPE><CLASSIFICATION_TYPE>U</CLASSIFICATION_TYPE><NORAD_CAT_ID>64824</NORAD_CAT_ID><ELEMENT_SET_NO>999</ELEMENT_SET_NO><REV_AT_EPOCH>2457</REV_AT_EPOCH><BSTAR>-.59323435E-3</BSTAR><MEAN_MOTION_DOT>-.4745E-4</MEAN_MOTION_DOT><MEAN_MOTION_DDOT>0</MEAN_MOTION_DDOT></tleParameters></data></segment></body></omm>

</ndm>
